{
"type": "FeatureCollection",
"name": "villes_figuig",
"crs": { "type": "name", "properties": { "name": "urn:ogc:def:crs:OGC:1.3:CRS84" } },
"features": [
{ "type": "Feature", "properties": { "id": null, "Name": "Tendrara" }, "geometry": { "type": "Point", "coordinates": [ -2.000508, 33.0518482, 0.0 ] } },
{ "type": "Feature", "properties": { "id": null, "Name": "Figuig" }, "geometry": { "type": "Point", "coordinates": [ -1.229806, 32.1092613, 0.0 ] } },
{ "type": "Feature", "properties": { "id": null, "Name": "Aïn Chaïr" }, "geometry": { "type": "Point", "coordinates": [ -2.525522, 32.20145, 0.0 ] } },
{ "type": "Feature", "properties": { "id": null, "Name": "Bouanane" }, "geometry": { "type": "Point", "coordinates": [ -3.049421, 32.0364903, 0.0 ] } },
{ "type": "Feature", "properties": { "id": null, "Name": "Bouârfa" }, "geometry": { "type": "Point", "coordinates": [ -1.9593793, 32.5314641, 0.0 ] } },
{ "type": "Feature", "properties": { "id": null, "Name": "Maatarka" }, "geometry": { "type": "Point", "coordinates": [ -2.6865484, 33.260294, 0.0 ] } },
{ "type": "Feature", "properties": { "id": null, "Name": "Bni Tadjite" }, "geometry": { "type": "Point", "coordinates": [ -3.4649824, 32.2917301, 0.0 ] } },
{ "type": "Feature", "properties": { "id": null, "Name": "Talsinnt" }, "geometry": { "type": "Point", "coordinates": [ -3.4422624, 32.5384139, 0.0 ] } },
{ "type": "Feature", "properties": { "id": null, "Name": "Ain Chouater" }, "geometry": { "type": "Point", "coordinates": [ -2.964917413230214, 31.848753367869829, 0.0 ] } },
{ "type": "Feature", "properties": { "id": null, "Name": "Bouchaouen" }, "geometry": { "type": "Point", "coordinates": [ -3.094306950879878, 32.679434199580697, 0.0 ] } }
]
}
