{
"type": "FeatureCollection",
"name": "PV Figuig",
"crs": { "type": "name", "properties": { "name": "urn:ogc:def:crs:OGC:1.3:CRS84" } },
"features": [
{ "type": "Feature", "properties": { "OBJECTID": 1, "FID_commun": 0, "fid_1": 1, "nom_commun": "Abbou Lakhal", "Province": "Figuig", "Pop2014": 1968, "Pop2024": 1789, "TAMA_2014_": -0.94907750015000003, "Nb_mén_20": 290, "Nb_mén__1": 295, "Pop2024_Ma": 901, "Pop2024_Fe": 888, "pop__15_a": 39.6, "pop_15_59": 53.0, "pop_60_ans": 7.4, "celib_15an": 29.6, "maries_15a": 65.8, "div_15ans": 0.6, "veufs_15an": 4.0, "Age_Moy_1e": 24.5, "T_Parité": 5.6, "ISF": 2.87, "T_prévale": 3.5, "T_analphab": 46.8, "Langues_10": 83.2, "Langues__1": 15.6, "Langues__2": 0.7, "T_scolaris": 86.1, "Pop_selon": 49.9, "Pop_selo_1": 1.8, "Pop_selo_2": 37.3, "Pop_selo_3": 8.8, "Pop_selo_4": 1.2, "Pop_selo_5": 1.0, "Langue_mat": 99.6, "Langue_m_1": 0.3, "T_d_activi": 44.6, "T__de_chô": 8.5, "profession": 0.0, "professi_1": 39.0, "professi_2": 36.5, "professi_3": 24.5, "professi_4": 0.0, "prof_des_a": 0.0, "Taille_moy": 6.1, "Type_de_lo": 0.0, "Type_de__1": 0.0, "Type_de__2": 5.8, "Type_de__3": 0.0, "Type_de__4": 35.9, "T_d_occupa": 3.6, "Statut_d_o": 89.8, "Statut_d_1": 0.3, "Equipement": 32.2, "Equipeme_1": 15.6, "Equipeme_2": 4.7, "Eau_couran": 6.4, "Électrici": 90.2, "Mode_d_év": 5.1, "Mode_d_é_": 7.1, "Anciennet1": 81.4, "Ancienne_1": 6.1, "Ancienne_2": 11.9, "Ancienne_3": 0.7, "Cond_d_hab": "5.9", "Indice_de": 24.81, "Taux_de_pa": 56.3, "Taux_de_vu": 17.0, "IPM_par_so": 12.6, "IPM_par__1": 44.1, "IPM_par__2": 43.3, "Etab_Econo": 18, "Etablissem": 18, "Etab_assoc": 0, "Souks_hebd": 0, "Etabliss_1": 0, "Etabliss_2": 0, "Etabliss_3": 0, "Etabliss_4": 0, "Etabliss_5": 0, "Etabliss_6": 0, "Etabliss_7": 0, "Etabliss_8": 0, "Etabliss_9": 0, "Etabliss10": 0, "Etabliss11": 0, "Etabliss12": 0, "Etabliss13": 0, "Etabliss14": 0, "Etabliss15": 0, "Etabliss16": 0, "Etabliss17": 0, "Etabliss18": 0, "Shape_Leng": 10.147173817300001 }, "geometry": { "type": "MultiLineString", "coordinates": [ [ [ -1.689287736339907, 33.631120621619459 ], [ -1.677187736824521, 33.620220622583702 ], [ -1.667387736354897, 33.60742062226393 ], [ -1.655587736284929, 33.593220621234707 ], [ -1.647487736869493, 33.577920622538727 ], [ -1.640187736574717, 33.565720622009167 ], [ -1.633487736969414, 33.552220622683649 ], [ -1.62858773763395, 33.535020621804279 ], [ -1.626587735335647, 33.520120621769308 ], [ -1.625087737209242, 33.50972062240885 ], [ -1.625387735755339, 33.499920621939225 ], [ -1.62588773722922, 33.48782062242384 ], [ -1.627887736829564, 33.471020622004175 ], [ -1.632987737294172, 33.45232062209908 ], [ -1.638987737893729, 33.431720621809291 ], [ -1.645787736714624, 33.406020621954212 ], [ -1.650387737504047, 33.387320622948437 ], [ -1.658287736689658, 33.369520622278969 ], [ -1.665287736639698, 33.350920622488786 ], [ -1.667687737598953, 33.329420622963426 ], [ -1.668687736949437, 33.30512062201916 ], [ -1.66538773765393, 33.28192062323825 ], [ -1.660987737094331, 33.263320622548747 ], [ -1.656487737319196, 33.24682062247382 ], [ -1.650987738193521, 33.231620622993432 ], [ -1.646687736849515, 33.223320622448796 ], [ -1.643787738013657, 33.217620622194033 ], [ -1.635287737239253, 33.193620623393087 ], [ -1.621687736000183, 33.173520622778597 ], [ -1.602587736534758, 33.146120623667912 ], [ -1.586287735790336, 33.125920622938452 ], [ -1.569187736824574, 33.109720622308942 ], [ -1.549087738008666, 33.089720623607946 ], [ -1.532187737474032, 33.070820622573706 ], [ -1.518487737918747, 33.052020623453075 ], [ -1.503887737329194, 33.024520623328158 ], [ -1.497087737608979, 33.002420624012643 ], [ -1.492987737394117, 32.980620623243226 ], [ -1.506487737618954, 32.958320622798567 ], [ -1.526787736664687, 32.941920623737872 ], [ -1.548187736075135, 32.924320623298172 ], [ -1.548187736974455, 32.92382062362293 ], [ -1.552787737763822, 32.912620623343116 ], [ -1.550087738258469, 32.894420623113319 ], [ -1.537587736484795, 32.867020624002635 ], [ -1.516687738548228, 32.835020623203263 ], [ -1.497887737628957, 32.812720623657924 ], [ -1.472187736874503, 32.778120623468055 ], [ -1.443787737514015, 32.744620623642902 ], [ -1.440687738448332, 32.741220624232483 ], [ -1.428887738378364, 32.746920624487302 ], [ -1.414087736659667, 32.743820623622923 ], [ -1.383987738043629, 32.742020623353142 ], [ -1.345687738098604, 32.725320623947709 ], [ -1.328387738003642, 32.718220624782077 ], [ -1.292987737793794, 32.704320624097591 ], [ -1.273687736299962, 32.696520623228253 ], [ -1.27088773667964, 32.694920624087558 ], [ -1.263787737514008, 32.690320623298192 ], [ -1.253187737923724, 32.683320624247472 ], [ -1.236587737733885, 32.672420623413075 ], [ -1.217587738383372, 32.660420624012659 ], [ -1.188887737778828, 32.641220624432322 ], [ -1.156087737858741, 32.619820624122553 ], [ -1.149087738808078, 32.615420624462274 ], [ -1.109187737923719, 32.589220624032635 ], [ -1.061887738428311, 32.559420624862014 ], [ -1.035987738343408, 32.541820624422314 ], [ -1.0039877384433, 32.521420624362349 ], [ -1.001487737369132, 32.513320624047594 ], [ -1.001887736929461, 32.504920625186742 ], [ -1.014387738703135, 32.498320624797032 ], [ -1.017087739107808, 32.497120625216724 ], [ -1.027587737683916, 32.48822062398267 ], [ -1.048587737534035, 32.469020624402333 ], [ -1.062087737758816, 32.46102062510181 ], [ -1.070187738073628, 32.457420624562246 ], [ -1.071487738668168, 32.457420624562246 ], [ -1.190087739157775, 32.333520625176789 ], [ -1.208187738373397, 32.306520624727113 ], [ -1.208587738833046, 32.244820624871977 ], [ -1.207287737339186, 32.223520624677121 ], [ -1.195087737708889, 32.203920624637192 ], [ -1.191287738738083, 32.19812062516678 ], [ -1.185687737698913, 32.189520624277463 ], [ -1.172587738833045, 32.174420624911988 ], [ -1.17238773860322, 32.162020624152547 ], [ -1.179587737883764, 32.144020625051837 ], [ -1.178387737404137, 32.137520625676359 ], [ -1.170487739117846, 32.125920625836272 ], [ -1.159987737843778, 32.112920625286677 ], [ -1.155587739082819, 32.10432062529668 ], [ -1.158887738378382, 32.087920625336665 ], [ -1.169087739307656, 32.073820624422353 ], [ -1.178387737404137, 32.065120625216707 ], [ -1.200987738193533, 32.05132062464719 ], [ -1.223987737643938, 32.041120625516498 ], [ -1.241187739422571, 32.034420625011876 ], [ -1.266787737364155, 32.034020624552227 ], [ -1.285987738743074, 32.038420625111826 ], [ -1.309287738538274, 32.038420625111826 ], [ -1.329087738808028, 32.043720624906939 ], [ -1.358987738992937, 32.050120625066825 ], [ -1.403287737738879, 32.061420624562231 ], [ -1.416587738633211, 32.064920624986883 ], [ -1.423587738583194, 32.066820625371633 ], [ -1.446087738358415, 32.071320625146768 ], [ -1.481087738108556, 32.084420624012637 ], [ -1.49758773908286, 32.08902062480206 ], [ -1.533287736939485, 32.09202062465215 ], [ -1.563787737813811, 32.097420624562233 ], [ -1.590387738703157, 32.098020624352387 ], [ -1.62498773709433, 32.100920624986884 ], [ -1.659787737514023, 32.099220623932695 ], [ -1.680387737803812, 32.100420625311642 ], [ -1.715187738223506, 32.099520624277432 ], [ -1.739287737139307, 32.103620623592974 ], [ -1.762487737718857, 32.106320623997647 ], [ -1.792087737558973, 32.110220623982684 ], [ -1.828287737788798, 32.113620624292423 ], [ -1.852487738618208, 32.118220625081847 ], [ -1.883087738708127, 32.124020624552259 ], [ -1.909787737014426, 32.130520624827 ], [ -2.024987738093614, 32.15242062391269 ], [ -2.025187737424119, 32.152220624582185 ], [ -2.04398773834339, 32.139520624377383 ], [ -2.083787737314196, 32.118520624527264 ], [ -2.108787738163528, 32.105920623537997 ], [ -2.111487738568258, 32.094820624272415 ], [ -2.128087738758097, 32.054120624267455 ], [ -2.157787737813806, 32.052920623787827 ], [ -2.17818773787377, 32.054520623827784 ], [ -2.192887738578236, 32.054420624612192 ], [ -2.248087737259198, 32.054820623273201 ], [ -2.253787736614697, 32.049420624262439 ], [ -2.272987737993674, 32.02542062456223 ], [ -2.278887738478318, 32.013820623822767 ], [ -2.298187737274191, 32.029420623762803 ], [ -2.319987737144288, 32.052720624457322 ], [ -2.34028773798866, 32.076520623028387 ], [ -2.363587736884483, 32.090020624152544 ], [ -2.384787736964427, 32.114420623413082 ], [ -2.395287738238494, 32.125320623348159 ], [ -2.412787738563225, 32.125220624132567 ], [ -2.452587736634712, 32.120420623113318 ], [ -2.490487737019407, 32.117420624162548 ], [ -2.525987737344167, 32.108720623158263 ], [ -2.559387737054351, 32.096420624312429 ], [ -2.57698773839337, 32.087320623747814 ], [ -2.609287736839519, 32.075620623792815 ], [ -2.658387737504029, 32.072920623388086 ], [ -2.703687738298413, 32.073520623178297 ], [ -2.759087737209256, 32.076420622913474 ], [ -2.75968773699941, 32.076520623028387 ], [ -2.774287738488283, 32.066020623552959 ], [ -2.78558773798369, 32.057920624137523 ], [ -2.806087736359871, 32.041720623508013 ], [ -2.826987737893717, 32.032520622828542 ], [ -2.842987737394139, 32.026520623128306 ], [ -2.883787737514012, 32.009620623493049 ], [ -2.901387737953712, 31.996720623957685 ], [ -2.903087737209262, 31.995520623478058 ], [ -2.891287737139294, 31.988520623528018 ], [ -2.875587737084345, 31.979420623862779 ], [ -2.832387737803799, 31.95182062362295 ], [ -2.844387738103592, 31.926420623213232 ], [ -2.850287737688916, 31.912120623867736 ], [ -2.856187738173503, 31.897720623508008 ], [ -2.8551877379237, 31.88422062328317 ], [ -2.854087737558984, 31.87062062384274 ], [ -2.849487737668937, 31.858920623887741 ], [ -2.844987737893746, 31.847220623033365 ], [ -2.843187737623964, 31.839020623503018 ], [ -2.841387737354125, 31.830920624087582 ], [ -2.841887738828063, 31.810220623682881 ], [ -2.848087737858748, 31.793920623837778 ], [ -2.85258773673462, 31.789320623947674 ], [ -2.864687738947964, 31.779320623248225 ], [ -2.872287737788838, 31.773920624237462 ], [ -2.892387738403329, 31.76152062347802 ], [ -2.914987738293462, 31.751020624002649 ], [ -2.940787736464813, 31.742520623228245 ], [ -2.963687738498265, 31.739920623837747 ], [ -2.975887737229243, 31.738620623243207 ], [ -2.988087736859541, 31.737320624447307 ], [ -3.00168773719929, 31.734520623927722 ], [ -3.025787737913731, 31.729220623233232 ], [ -3.036087738058598, 31.726620623842791 ], [ -3.048787737364137, 31.722420624412337 ], [ -3.061387736554764, 31.71812062396765 ], [ -3.073487738768108, 31.714320624097581 ], [ -3.085487737269204, 31.710520623328136 ], [ -3.113287738638178, 31.704820623972694 ], [ -3.1256877384983, 31.702720624257438 ], [ -3.126387737504047, 31.702620624142526 ], [ -3.127487737868762, 31.702420623912701 ], [ -3.145987737544033, 31.699320623947699 ], [ -3.170287738488298, 31.699020623602962 ], [ -3.188587737034368, 31.700820623872744 ], [ -3.197287738038654, 31.698620623143313 ], [ -3.225387737953724, 31.691620623193273 ], [ -3.245887739027864, 31.686220624182511 ], [ -3.265187737823794, 31.706920623687893 ], [ -3.28348773726924, 31.726520623727879 ], [ -3.279787738413347, 31.728120622868516 ], [ -3.259487736669655, 31.737420623662899 ], [ -3.227487737668923, 31.750920623887737 ], [ -3.220387736704652, 31.754720623757805 ], [ -3.211487738168557, 31.760820623572954 ], [ -3.185787738313422, 31.773320623547988 ], [ -3.185787738313422, 31.773620623892725 ], [ -3.17378773801363, 31.779520623478049 ], [ -3.154387738203525, 31.789320623048354 ], [ -3.141387738553249, 31.797320623248197 ], [ -3.122987737194251, 31.814320623897743 ], [ -3.11208773815855, 31.823520623677894 ], [ -3.122287738188504, 31.822320623198266 ], [ -3.131887737529041, 31.822720623657915 ], [ -3.139087736809586, 31.820820623273221 ], [ -3.147987737144319, 31.821920623637936 ], [ -3.153987738643195, 31.819420623463031 ], [ -3.162987738193522, 31.819820623023361 ], [ -3.171087738508277, 31.814120623667918 ], [ -3.179387737254217, 31.814020623553006 ], [ -3.179687738498274, 31.803120622718609 ], [ -3.182987737793837, 31.801320623348147 ], [ -3.187687737798797, 31.803820623522995 ], [ -3.194587737633924, 31.81892062288847 ], [ -3.234087738058633, 31.893820622623707 ], [ -3.244187737074355, 31.911320623847757 ], [ -3.253587737084331, 31.927420623463036 ], [ -3.26458773713432, 31.951220623832796 ], [ -3.264887738378377, 31.951920623737863 ], [ -3.274487738618177, 31.972720623358157 ], [ -3.272387738003658, 31.999020623003389 ], [ -3.270687736949469, 32.013420623363118 ], [ -3.27118773842335, 32.027820622823526 ], [ -3.271487736969448, 32.049920623038361 ], [ -3.272287736989426, 32.099120622918463 ], [ -3.271287736739623, 32.110520622528782 ], [ -3.264287738588223, 32.117420622363909 ], [ -3.260087736459809, 32.120320622998406 ], [ -3.248987737194284, 32.128020623752832 ], [ -3.229887738628179, 32.138020622653642 ], [ -3.215187737024394, 32.149720622608697 ], [ -3.188287737588951, 32.174220622883468 ], [ -3.177887737329172, 32.181520623178244 ], [ -3.194787737863749, 32.176820622273965 ], [ -3.225587737284229, 32.170620622343904 ], [ -3.246387737803786, 32.166220623582944 ], [ -3.268987737693919, 32.160220622983388 ], [ -3.286087737559001, 32.154020623053384 ], [ -3.301587738283445, 32.153020621904204 ], [ -3.315487737169292, 32.151320622648655 ], [ -3.328687737948712, 32.150120623068347 ], [ -3.340687737349128, 32.148620623143302 ], [ -3.353787736214997, 32.143520622678636 ], [ -3.363987736245008, 32.137220623532983 ], [ -3.37768773669967, 32.12922062243382 ], [ -3.396087737159291, 32.134320622898485 ], [ -3.410287736389876, 32.135620622593706 ], [ -3.416887737678906, 32.137720622308905 ], [ -3.420187737873732, 32.140020623153305 ], [ -3.421787737913746, 32.141120622618701 ], [ -3.425787738013639, 32.147820622224003 ], [ -3.42148773666969, 32.158620622943431 ], [ -3.42148773666969, 32.161920622238995 ], [ -3.425687737898727, 32.164520622528755 ], [ -3.431187737024402, 32.166620622243954 ], [ -3.437587737184288, 32.171420623263202 ], [ -3.445487737269218, 32.172620621944191 ], [ -3.452187736874521, 32.173320621849257 ], [ -3.469087737409097, 32.17832062309833 ], [ -3.480887737479065, 32.182520622528784 ], [ -3.490887737279195, 32.184520623028391 ], [ -3.498387737803796, 32.185720622608699 ], [ -3.504087738058615, 32.185920621939204 ], [ -3.509387737853785, 32.186920622189007 ], [ -3.516487737019418, 32.18662062274359 ], [ -3.52318773752404, 32.186020622054116 ], [ -3.52748773706935, 32.186820622973414 ], [ -3.534187737573973, 32.188320621999139 ], [ -3.538587736334932, 32.187520621979161 ], [ -3.54378773781383, 32.18752062287848 ], [ -3.553187737823805, 32.186720622858502 ], [ -3.554887737079355, 32.18532062214905 ], [ -3.549087737608943, 32.182020622853486 ], [ -3.550887736979405, 32.176420622713636 ], [ -3.546487738218502, 32.174620622443797 ], [ -3.540287737389122, 32.172720622958423 ], [ -3.535687737499018, 32.16472062275858 ], [ -3.538287737788835, 32.161020623003424 ], [ -3.538187736774603, 32.156720622558737 ], [ -3.544387737603984, 32.152020622553721 ], [ -3.555787737214246, 32.146520622528783 ], [ -3.573787738113595, 32.140820622273964 ], [ -3.585487737169274, 32.136420622613684 ], [ -3.609587736984452, 32.131420622263931 ], [ -3.629287736239974, 32.126720622258972 ], [ -3.641187737324174, 32.124320622198979 ], [ -3.660287736789599, 32.118720622059129 ], [ -3.687187738023624, 32.114120622169025 ], [ -3.698587735835304, 32.11132062254876 ], [ -3.700687738248462, 32.112020622453826 ], [ -3.702287737389099, 32.115120622418829 ], [ -3.700387736105085, 32.121620621794307 ], [ -3.700487738018637, 32.132520622628704 ], [ -3.698587736734623, 32.133720622209012 ], [ -3.69588773722927, 32.13452062222899 ], [ -3.693687736499783, 32.135720621809298 ], [ -3.690787735865285, 32.139620622693656 ], [ -3.69188773802864, 32.140620622943459 ], [ -3.692087737359145, 32.142420622313921 ], [ -3.690487737319188, 32.14452062202912 ], [ -3.683387737254236, 32.153920622938472 ], [ -3.671287735940211, 32.17002062255375 ], [ -3.666687737848804, 32.177220622733614 ], [ -3.665987737044361, 32.185720622608699 ], [ -3.671287736839531, 32.194820622273937 ], [ -3.680987737194243, 32.200120622968427 ], [ -3.692687737149299, 32.203020622703605 ], [ -3.712187737074373, 32.206020622553751 ], [ -3.729687737399104, 32.207620622593709 ], [ -3.74798773774387, 32.205220622533773 ], [ -3.757187737524021, 32.204020622054088 ], [ -3.757187737524021, 32.206420622114081 ], [ -3.750787737364135, 32.223520621979162 ], [ -3.745487736669645, 32.233920622238998 ], [ -3.739987737544027, 32.247120622119041 ], [ -3.736287735990174, 32.256920622588723 ], [ -3.736087737558989, 32.268020621854248 ], [ -3.739187737524048, 32.270220621684416 ], [ -3.743387736055126, 32.272320621399615 ], [ -3.74668773714933, 32.271120622718627 ], [ -3.760887736379857, 32.268720621759314 ], [ -3.776787736664687, 32.264920622788566 ], [ -3.781387737454054, 32.26252062182931 ], [ -3.786787736464817, 32.259720622208988 ], [ -3.797987735845311, 32.260020621654405 ], [ -3.808987736794563, 32.257720622608701 ], [ -3.81328773633993, 32.258220621384623 ], [ -3.813187738023657, 32.265820622024137 ], [ -3.806487736619715, 32.272220622184022 ], [ -3.799287737339171, 32.275920621939179 ], [ -3.789987737444108, 32.278120621769347 ], [ -3.782987736594748, 32.28342062246378 ], [ -3.77948773796868, 32.289520622278928 ], [ -3.779887736629689, 32.290820622873525 ], [ -3.781587737683878, 32.296420622114056 ], [ -3.788387736504774, 32.307820622623694 ], [ -3.79568773679955, 32.328920622588726 ], [ -3.804587738033661, 32.346720622358873 ], [ -3.812287736090127, 32.363920622338924 ], [ -3.819287736939486, 32.370020622154016 ], [ -3.821787737114335, 32.375820621624428 ], [ -3.822487737019401, 32.378420621914245 ], [ -3.827987737044396, 32.386320621999175 ], [ -3.830087736759594, 32.392720622159061 ], [ -3.835787737014414, 32.400320621899255 ], [ -3.835987737244238, 32.400520622129079 ], [ -3.846987736394851, 32.412420622313903 ], [ -3.860187737174272, 32.422520622229001 ], [ -3.863887736929485, 32.428220621584444 ], [ -3.869487736170015, 32.43292062248878 ], [ -3.880587737234237, 32.43822062228395 ], [ -3.885687736799582, 32.445420622463814 ], [ -3.889487735770331, 32.452020621954205 ], [ -3.901487736070123, 32.463920621239708 ], [ -3.916187735875269, 32.478320621599437 ], [ -3.937687737199269, 32.497120621619445 ], [ -3.93988773702938, 32.5088206215745 ], [ -3.938587735535521, 32.513620621694372 ], [ -3.937787736414862, 32.521120622218973 ], [ -3.935187737024421, 32.52842062161443 ], [ -3.943987737244242, 32.539120621319682 ], [ -3.958187736474827, 32.555720621509522 ], [ -3.966587737134319, 32.565520621979147 ], [ -3.979487737569002, 32.582920622189022 ], [ -3.988187737673911, 32.593520621779305 ], [ -3.993187736225025, 32.596820621074869 ], [ -3.998287735790313, 32.598420621114826 ], [ -3.998787736364875, 32.611920621339664 ], [ -3.999087736709612, 32.620720621559485 ], [ -3.998287735790313, 32.648920621589468 ], [ -3.98498773759394, 32.664620620745097 ], [ -3.978087735960173, 32.675120622019165 ], [ -3.961987735445575, 32.695020621504511 ], [ -3.931187736924471, 32.721420621264713 ], [ -3.91178773621499, 32.738920620690124 ], [ -3.897287736639669, 32.761520621479576 ], [ -3.88988773533066, 32.786320621199764 ], [ -3.881287735340663, 32.808320621299686 ], [ -3.870887736879524, 32.824020620455315 ], [ -3.853587735885242, 32.838120621369626 ], [ -3.819087736709662, 32.873120621119824 ], [ -3.804687736349933, 32.896520621029879 ], [ -3.76588773672961, 32.936620621244742 ], [ -3.731887736329895, 32.966020621754353 ], [ -3.714787736464814, 32.983120621619435 ], [ -3.707387736055125, 33.004220620685146 ], [ -3.701587735685393, 33.020820621774305 ], [ -3.669687735900254, 33.044820621474571 ], [ -3.633487735670428, 33.078620620745085 ], [ -3.609487735070843, 33.097020621204763 ], [ -3.574887735780351, 33.113120620820041 ], [ -3.569687736999413, 33.113120620820041 ], [ -3.563187736724615, 33.108520621829314 ], [ -3.559387735055907, 33.104120621269715 ], [ -3.550287736289931, 33.0973206215495 ], [ -3.537187735625423, 33.095120620820069 ], [ -3.535887735930203, 33.094920621489564 ], [ -3.522787736165071, 33.093620620894967 ], [ -3.518687735950209, 33.097920620440334 ], [ -3.510787735865279, 33.101120620520248 ], [ -3.499787736714609, 33.099220621034874 ], [ -3.491387736055117, 33.098220620785071 ], [ -3.487287734940992, 33.095520621279718 ], [ -3.485187737024376, 33.095520621279718 ], [ -3.482087737059373, 33.095420621164806 ], [ -3.480087736559767, 33.092820620874988 ], [ -3.446787736964438, 33.087920621539524 ], [ -3.443687735200797, 33.086920621289664 ], [ -3.426987735795308, 33.085820620924949 ], [ -3.417587734886013, 33.085620621594444 ], [ -3.41448773671965, 33.085620620695124 ], [ -3.406187735275694, 33.08372062120975 ], [ -3.404087736459815, 33.082820621074859 ], [ -3.384187736075091, 33.086920621289664 ], [ -3.368487736020143, 33.088420621214766 ], [ -3.364287736589745, 33.090920620490294 ], [ -3.358987736794575, 33.091720621409593 ], [ -3.355887735930196, 33.092520621429571 ], [ -3.350787735465588, 33.088120620870029 ], [ -3.346587736934453, 33.088020620755117 ], [ -3.341287736239963, 33.088820620775095 ], [ -3.338187736274961, 33.089620621694394 ], [ -3.327787736914502, 33.088620620545271 ], [ -3.306787737064383, 33.091720621409593 ], [ -3.289987736644662, 33.097620621894237 ], [ -3.285687736200032, 33.100220621284677 ], [ -3.280487735620454, 33.102720621459582 ], [ -3.275287736839516, 33.10262062134467 ], [ -3.243787735715387, 33.107320621349629 ], [ -3.205087736210032, 33.111920621239733 ], [ -3.196687735550483, 33.114420621414581 ], [ -3.174787736464793, 33.111420621564491 ], [ -3.168487736419877, 33.113920621739339 ], [ -3.154887736979447, 33.115420621664384 ], [ -3.136987735295691, 33.121220621134796 ], [ -3.1326877366497, 33.125620621694395 ], [ -3.129487735670409, 33.125520621579483 ], [ -3.126387735705407, 33.126320621599461 ], [ -3.117987736844555, 33.126220621484549 ], [ -3.103387736255002, 33.125920622039132 ], [ -3.03848773721927, 33.131720621509544 ], [ -3.005787735615456, 33.143420622363863 ], [ -2.99508773680958, 33.152820621474575 ], [ -2.989187737224256, 33.162820621274705 ], [ -2.977587736484793, 33.168120621069875 ], [ -2.970987735195763, 33.168020621854282 ], [ -2.959287736140084, 33.173320620750076 ], [ -2.873587735685419, 33.182620621544515 ], [ -2.878787737164316, 33.187920621339629 ], [ -2.895887736130078, 33.205220621434592 ], [ -2.905387735355646, 33.219220622233991 ], [ -2.952787735865286, 33.287820621024878 ], [ -2.982587735035906, 33.34232062070015 ], [ -2.995287737039405, 33.360820621274684 ], [ -3.022287735690384, 33.376720621559514 ], [ -3.042587736534756, 33.391620620695164 ], [ -3.048887736579729, 33.401020621604459 ], [ -3.036887736279937, 33.415720621409605 ], [ -3.02298773649477, 33.431720620909971 ], [ -3.009787736614726, 33.44612062037038 ], [ -2.990487735120837, 33.464120621269728 ], [ -2.976287734990933, 33.477920620939983 ], [ -2.962587735435591, 33.491320621049852 ], [ -2.952587735635461, 33.500620621844291 ], [ -2.940287736789571, 33.510720620860013 ], [ -2.929787735515561, 33.517920621039877 ], [ -2.919287736939452, 33.527120620820028 ], [ -2.910587735935223, 33.535020620904959 ], [ -2.904887736579724, 33.541520621179757 ], [ -2.895587735785341, 33.550720620959964 ], [ -2.888487736619709, 33.561120620320423 ], [ -2.880787735865283, 33.571920621039908 ], [ -2.873487736469826, 33.585120620919952 ], [ -2.864387735005891, 33.600220621184747 ], [ -2.857787735515558, 33.610220620984933 ], [ -2.857287735840316, 33.611020621004911 ], [ -2.848887735180767, 33.62372062120977 ], [ -2.840487736319915, 33.63542062026545 ], [ -2.830987735295707, 33.646620621444583 ], [ -2.820887736279985, 33.657320621149779 ], [ -2.811587735485546, 33.665620620795039 ], [ -2.796487736120071, 33.672120620170517 ], [ -2.790987736095076, 33.674820620575247 ], [ -2.775087736709622, 33.673520621779346 ], [ -2.761687735700377, 33.671420621164771 ], [ -2.748387736604741, 33.667820620625207 ], [ -2.730987736394866, 33.662120621269707 ], [ -2.72028773668967, 33.659820620425364 ], [ -2.715887735230751, 33.658920620290473 ], [ -2.685387737054384, 33.655420620765085 ], [ -2.661887735230721, 33.65432062040037 ], [ -2.623287736739599, 33.649420620165529 ], [ -2.584787736564749, 33.643620620695117 ], [ -2.548487736220011, 33.638820620575245 ], [ -2.51078773696446, 33.637820620325442 ], [ -2.492987735395616, 33.637420620765113 ], [ -2.471987735545497, 33.636820621874278 ], [ -2.434287735390626, 33.635820621624418 ], [ -2.408387735305666, 33.636420621414572 ], [ -2.378487735120814, 33.638520621129828 ], [ -2.349287735740347, 33.640520621629435 ], [ -2.330887737079365, 33.64432062149956 ], [ -2.311087736809554, 33.65262062114482 ], [ -2.284687736150033, 33.666120622268977 ], [ -2.271187735925253, 33.672920621089816 ], [ -2.247987736244966, 33.681620621194782 ], [ -2.23198773584528, 33.687920621239755 ], [ -2.210987735095841, 33.693120620919956 ], [ -2.180987735695396, 33.693020620805044 ], [ -2.153787736814536, 33.691120621319669 ], [ -2.1417877365148, 33.688120621469579 ], [ -2.136387735705398, 33.686820621774302 ], [ -2.117787735915215, 33.680320621499561 ], [ -2.117287736239973, 33.68012062126968 ], [ -2.091887736729632, 33.671220621834266 ], [ -2.071487736669667, 33.664120621769314 ], [ -2.052387736304922, 33.656320621799296 ], [ -2.029687737199254, 33.649420621964168 ], [ -2.002987736194996, 33.640920622089084 ], [ -1.985487736769585, 33.63732062154952 ], [ -1.96208773685953, 33.632120621869262 ], [ -1.940087736759608, 33.628720621559467 ], [ -1.911187736824559, 33.626420622513763 ], [ -1.887887737029416, 33.628920621789291 ], [ -1.872287737089323, 33.632820621774329 ], [ -1.862187737174281, 33.635220621834264 ], [ -1.841587735985172, 33.64292062258869 ], [ -1.825287736140069, 33.649020621504519 ], [ -1.811787735015912, 33.658820621074881 ], [ -1.796887736779581, 33.669920622139045 ], [ -1.781287735940225, 33.678220621784305 ], [ -1.769387736654664, 33.683520622478795 ], [ -1.75128773564046, 33.690920621989164 ], [ -1.734887736579708, 33.697720621709379 ], [ -1.723087736509797, 33.701320622248943 ], [ -1.723387735955214, 33.691720622009143 ], [ -1.721787735915257, 33.678120621669393 ], [ -1.717987736045131, 33.666920622288956 ], [ -1.709087735710398, 33.654220622084097 ], [ -1.698287735890233, 33.641320621649413 ], [ -1.689287736339907, 33.631120621619459 ] ] ] } }
]
}
